[{"OBJECT_NAME":"ETIHAD-SAT","OBJECT_ID":"2025-052S","EPOCH":"2026-03-09T16:03:28.707264","MEAN_MOTION":15.21246201,"ECCENTRICITY":0.00067443,"INCLINATION":97.4075,"RA_OF_ASC_NODE":322.8388,"ARG_OF_PERICENTER":120.6163,"MEAN_ANOMALY":239.5739,"EPHEMERIS_TYPE":0,"CLASSIFICATION_TYPE":"U","NORAD_CAT_ID":63226,"ELEMENT_SET_NO":999,"REV_AT_EPOCH":5470,"BSTAR":0.00038811178,"MEAN_MOTION_DOT":8.608e-5,"MEAN_MOTION_DDOT":0},{"OBJECT_NAME":"GEESAT-4 04","OBJECT_ID":"2025-170D","EPOCH":"2026-03-09T23:17:55.914720","MEAN_MOTION":15.1505395,"ECCENTRICITY":0.00176751,"INCLINATION":49.9794,"RA_OF_ASC_NODE":229.0049,"ARG_OF_PERICENTER":290.2477,"MEAN_ANOMALY":69.6574,"EPHEMERIS_TYPE":0,"CLASSIFICATION_TYPE":"U","NORAD_CAT_ID":65122,"ELEMENT_SET_NO":999,"REV_AT_EPOCH":3230,"BSTAR":0.00059156623,"MEAN_MOTION_DOT":0.00010965,"MEAN_MOTION_DDOT":0}]
